DELTA 2 R/B(1)          
1 20453U 90008B   25362.12155574  .00060321  00000+0  92520-3 0  9991
2 20453  35.6064 281.1107 0108868 317.7503  41.4882 15.46558121915018
COSMOS 2058             
1 20465U 90010A   25362.32506655  .00006307  00000+0  37954-3 0  9993
2 20465  82.4706 117.7014 0009751 215.2223 144.8363 15.10628938931461
SL-14 R/B               
1 20466U 90010B   25362.39405559  .00000661  00000+0  77292-4 0  9999
2 20466  82.5025 334.3439 0019998 170.2757 189.8849 14.83486917917911
SL-14 R/B               
1 20511U 90018B   25362.54579553  .00000659  00000+0  79916-4 0  9993
2 20511  82.5220 289.5923 0015640 331.2264  28.8086 14.82063910912047
HST                     
1 20580U 90037B   25362.53107372  .00008279  00000+0  28421-3 0  9995
2 20580  28.4654 164.9864 0002566  55.2376 304.8460 15.28251328762413
SL-16 R/B               
1 20625U 90046B   25362.65171982  .00000031  00000+0  40404-4 0  9990
2 20625  70.9992  87.1059 0012428  46.1175 314.0972 14.14997573838346
COSMOS 2084             
1 20663U 90055A   25362.58015395  .00003265  00000+0  24034-3 0  9991
2 20663  62.7885 218.0158 0029195 176.8664 183.2625 15.05113634925613
SL-6 R/B(2)             
1 20666U 90055D   25362.46762989  .00003404  00000+0  26466-3 0  9995
2 20666  62.7829 135.9716 0014581 319.2738  40.7270 15.03153801927487
SL-8 R/B                
1 20775U 90078B   25362.62005141  .00017033  00000+0  52475-3 0  9991
2 20775  82.9055 315.0902 0369778 252.4139 103.6375 14.86494690798738
SL-8 R/B                
1 21088U 91006B   25362.65692221  .00000076  00000+0  61163-4 0  9999
2 21088  82.9411 222.8732 0021400 232.5429 181.9354 13.77492837754295
OKEAN-3                 
1 21397U 91039A   25362.58136208  .00003495  00000+0  24914-3 0  9998
2 21397  82.5164  45.7122 0013678 205.7143 154.3405 15.04216892854342
COSMOS 2151             
1 21422U 91042A   25362.56953084  .00003370  00000+0  27040-3 0  9993
2 21422  82.4967 152.2478 0011437 303.3393  56.6735 14.99752372852532
