CCSDS_OMM_VERS = 2.0
CREATION_DATE  = 
ORIGINATOR     = 

OBJECT_NAME    = DELTA 2 R/B(1)
OBJECT_ID      = 1990-008B
CENTER_NAME    = EARTH
REF_FRAME      = TEME
TIME_SYSTEM    = UTC
MEAN_ELEMENT_THEORY = SGP/SGP4

EPOCH          = 2025-12-28T02:55:02.415936
MEAN_MOTION    = 15.46558121
ECCENTRICITY   = .01088689
INCLINATION    = 35.6064
RA_OF_ASC_NODE = 281.1107
ARG_OF_PERICENTER = 317.7503
MEAN_ANOMALY   = 41.4882

EPHEMERIS_TYPE = 0
CLASSIFICATION_TYPE = U
NORAD_CAT_ID   = 20453
ELEMENT_SET_NO = 999
REV_AT_EPOCH   = 91501
BSTAR          = .92519841E-3
MEAN_MOTION_DOT = .60321E-3
MEAN_MOTION_DDOT = 0

CCSDS_OMM_VERS = 2.0
CREATION_DATE  = 
ORIGINATOR     = 

OBJECT_NAME    = COSMOS 2058
OBJECT_ID      = 1990-010A
CENTER_NAME    = EARTH
REF_FRAME      = TEME
TIME_SYSTEM    = UTC
MEAN_ELEMENT_THEORY = SGP/SGP4

EPOCH          = 2025-12-28T07:48:05.749920
MEAN_MOTION    = 15.10628938
ECCENTRICITY   = .0009751
INCLINATION    = 82.4706
RA_OF_ASC_NODE = 117.7014
ARG_OF_PERICENTER = 215.2223
MEAN_ANOMALY   = 144.8363

EPHEMERIS_TYPE = 0
CLASSIFICATION_TYPE = U
NORAD_CAT_ID   = 20465
ELEMENT_SET_NO = 999
REV_AT_EPOCH   = 93146
BSTAR          = .37954E-3
MEAN_MOTION_DOT = .6307E-4
MEAN_MOTION_DDOT = 0

CCSDS_OMM_VERS = 2.0
CREATION_DATE  = 
ORIGINATOR     = 

OBJECT_NAME    = SL-14 R/B
OBJECT_ID      = 1990-010B
CENTER_NAME    = EARTH
REF_FRAME      = TEME
TIME_SYSTEM    = UTC
MEAN_ELEMENT_THEORY = SGP/SGP4

EPOCH          = 2025-12-28T09:27:26.402976
MEAN_MOTION    = 14.83486917
ECCENTRICITY   = .00199984
INCLINATION    = 82.5025
RA_OF_ASC_NODE = 334.3439
ARG_OF_PERICENTER = 170.2757
MEAN_ANOMALY   = 189.8849

EPHEMERIS_TYPE = 0
CLASSIFICATION_TYPE = U
NORAD_CAT_ID   = 20466
ELEMENT_SET_NO = 999
REV_AT_EPOCH   = 91791
BSTAR          = .77291864E-4
MEAN_MOTION_DOT = .661E-5
MEAN_MOTION_DDOT = 0

CCSDS_OMM_VERS = 2.0
CREATION_DATE  = 
ORIGINATOR     = 

OBJECT_NAME    = SL-14 R/B
OBJECT_ID      = 1990-018B
CENTER_NAME    = EARTH
REF_FRAME      = TEME
TIME_SYSTEM    = UTC
MEAN_ELEMENT_THEORY = SGP/SGP4

EPOCH          = 2025-12-28T13:05:56.733792
MEAN_MOTION    = 14.82063910
ECCENTRICITY   = .001564
INCLINATION    = 82.5220
RA_OF_ASC_NODE = 289.5923
ARG_OF_PERICENTER = 331.2264
MEAN_ANOMALY   = 28.8086

EPHEMERIS_TYPE = 0
CLASSIFICATION_TYPE = U
NORAD_CAT_ID   = 20511
ELEMENT_SET_NO = 999
REV_AT_EPOCH   = 91204
BSTAR          = .79915935E-4
MEAN_MOTION_DOT = .659E-5
MEAN_MOTION_DDOT = 0

CCSDS_OMM_VERS = 2.0
CREATION_DATE  = 
ORIGINATOR     = 

OBJECT_NAME    = HST
OBJECT_ID      = 1990-037B
CENTER_NAME    = EARTH
REF_FRAME      = TEME
TIME_SYSTEM    = UTC
MEAN_ELEMENT_THEORY = SGP/SGP4

EPOCH          = 2025-12-28T12:44:44.769408
MEAN_MOTION    = 15.28251328
ECCENTRICITY   = .00025664
INCLINATION    = 28.4654
RA_OF_ASC_NODE = 164.9864
ARG_OF_PERICENTER = 55.2376
MEAN_ANOMALY   = 304.8460

EPHEMERIS_TYPE = 0
CLASSIFICATION_TYPE = U
NORAD_CAT_ID   = 20580
ELEMENT_SET_NO = 999
REV_AT_EPOCH   = 76241
BSTAR          = .28420713E-3
MEAN_MOTION_DOT = .8279E-4
MEAN_MOTION_DDOT = 0

CCSDS_OMM_VERS = 2.0
CREATION_DATE  = 
ORIGINATOR     = 

OBJECT_NAME    = SL-16 R/B
OBJECT_ID      = 1990-046B
CENTER_NAME    = EARTH
REF_FRAME      = TEME
TIME_SYSTEM    = UTC
MEAN_ELEMENT_THEORY = SGP/SGP4

EPOCH          = 2025-12-28T15:38:28.592448
MEAN_MOTION    = 14.14997573
ECCENTRICITY   = .00124283
INCLINATION    = 70.9992
RA_OF_ASC_NODE = 87.1059
ARG_OF_PERICENTER = 46.1175
MEAN_ANOMALY   = 314.0972

EPHEMERIS_TYPE = 0
CLASSIFICATION_TYPE = U
NORAD_CAT_ID   = 20625
ELEMENT_SET_NO = 999
REV_AT_EPOCH   = 83834
BSTAR          = .40404022E-4
MEAN_MOTION_DOT = .31E-6
MEAN_MOTION_DDOT = 0

CCSDS_OMM_VERS = 2.0
CREATION_DATE  = 
ORIGINATOR     = 

OBJECT_NAME    = COSMOS 2084
OBJECT_ID      = 1990-055A
CENTER_NAME    = EARTH
REF_FRAME      = TEME
TIME_SYSTEM    = UTC
MEAN_ELEMENT_THEORY = SGP/SGP4

EPOCH          = 2025-12-28T13:55:25.301280
MEAN_MOTION    = 15.05113634
ECCENTRICITY   = .0029195
INCLINATION    = 62.7885
RA_OF_ASC_NODE = 218.0158
ARG_OF_PERICENTER = 176.8664
MEAN_ANOMALY   = 183.2625

EPHEMERIS_TYPE = 0
CLASSIFICATION_TYPE = U
NORAD_CAT_ID   = 20663
ELEMENT_SET_NO = 999
REV_AT_EPOCH   = 92561
BSTAR          = .24033897E-3
MEAN_MOTION_DOT = .3265E-4
MEAN_MOTION_DDOT = 0

CCSDS_OMM_VERS = 2.0
CREATION_DATE  = 
ORIGINATOR     = 

OBJECT_NAME    = SL-6 R/B(2)
OBJECT_ID      = 1990-055D
CENTER_NAME    = EARTH
REF_FRAME      = TEME
TIME_SYSTEM    = UTC
MEAN_ELEMENT_THEORY = SGP/SGP4

EPOCH          = 2025-12-28T11:13:23.222496
MEAN_MOTION    = 15.03153801
ECCENTRICITY   = .0014581
INCLINATION    = 62.7829
RA_OF_ASC_NODE = 135.9716
ARG_OF_PERICENTER = 319.2738
MEAN_ANOMALY   = 40.7270

EPHEMERIS_TYPE = 0
CLASSIFICATION_TYPE = U
NORAD_CAT_ID   = 20666
ELEMENT_SET_NO = 999
REV_AT_EPOCH   = 92748
BSTAR          = .26466177E-3
MEAN_MOTION_DOT = .3404E-4
MEAN_MOTION_DDOT = 0

CCSDS_OMM_VERS = 2.0
CREATION_DATE  = 
ORIGINATOR     = 

OBJECT_NAME    = SL-8 R/B
OBJECT_ID      = 1990-078B
CENTER_NAME    = EARTH
REF_FRAME      = TEME
TIME_SYSTEM    = UTC
MEAN_ELEMENT_THEORY = SGP/SGP4

EPOCH          = 2025-12-28T14:52:52.441824
MEAN_MOTION    = 14.86494690
ECCENTRICITY   = .03697787
INCLINATION    = 82.9055
RA_OF_ASC_NODE = 315.0902
ARG_OF_PERICENTER = 252.4139
MEAN_ANOMALY   = 103.6375

EPHEMERIS_TYPE = 0
CLASSIFICATION_TYPE = U
NORAD_CAT_ID   = 20775
ELEMENT_SET_NO = 999
REV_AT_EPOCH   = 79873
BSTAR          = .52474874E-3
MEAN_MOTION_DOT = .17033E-3
MEAN_MOTION_DDOT = 0

CCSDS_OMM_VERS = 2.0
CREATION_DATE  = 
ORIGINATOR     = 

OBJECT_NAME    = SL-8 R/B
OBJECT_ID      = 1991-006B
CENTER_NAME    = EARTH
REF_FRAME      = TEME
TIME_SYSTEM    = UTC
MEAN_ELEMENT_THEORY = SGP/SGP4

EPOCH          = 2025-12-28T15:45:58.078944
MEAN_MOTION    = 13.77492837
ECCENTRICITY   = .00214004
INCLINATION    = 82.9411
RA_OF_ASC_NODE = 222.8732
ARG_OF_PERICENTER = 232.5429
MEAN_ANOMALY   = 181.9354

EPHEMERIS_TYPE = 0
CLASSIFICATION_TYPE = U
NORAD_CAT_ID   = 21088
ELEMENT_SET_NO = 999
REV_AT_EPOCH   = 75429
BSTAR          = .611628E-4
MEAN_MOTION_DOT = .76E-6
MEAN_MOTION_DDOT = 0

CCSDS_OMM_VERS = 2.0
CREATION_DATE  = 
ORIGINATOR     = 

OBJECT_NAME    = OKEAN-3
OBJECT_ID      = 1991-039A
CENTER_NAME    = EARTH
REF_FRAME      = TEME
TIME_SYSTEM    = UTC
MEAN_ELEMENT_THEORY = SGP/SGP4

EPOCH          = 2025-12-28T13:57:09.683712
MEAN_MOTION    = 15.04216892
ECCENTRICITY   = .00136788
INCLINATION    = 82.5164
RA_OF_ASC_NODE = 45.7122
ARG_OF_PERICENTER = 205.7143
MEAN_ANOMALY   = 154.3405

EPHEMERIS_TYPE = 0
CLASSIFICATION_TYPE = U
NORAD_CAT_ID   = 21397
ELEMENT_SET_NO = 999
REV_AT_EPOCH   = 85434
BSTAR          = .24913911E-3
MEAN_MOTION_DOT = .3495E-4
MEAN_MOTION_DDOT = 0

CCSDS_OMM_VERS = 2.0
CREATION_DATE  = 
ORIGINATOR     = 

OBJECT_NAME    = COSMOS 2151
OBJECT_ID      = 1991-042A
CENTER_NAME    = EARTH
REF_FRAME      = TEME
TIME_SYSTEM    = UTC
MEAN_ELEMENT_THEORY = SGP/SGP4

EPOCH          = 2025-12-28T13:40:07.464576
MEAN_MOTION    = 14.99752372
ECCENTRICITY   = .00114377
INCLINATION    = 82.4967
RA_OF_ASC_NODE = 152.2478
ARG_OF_PERICENTER = 303.3393
MEAN_ANOMALY   = 56.6735

EPHEMERIS_TYPE = 0
CLASSIFICATION_TYPE = U
NORAD_CAT_ID   = 21422
ELEMENT_SET_NO = 999
REV_AT_EPOCH   = 85253
BSTAR          = .27040237E-3
MEAN_MOTION_DOT = .337E-4
MEAN_MOTION_DDOT = 0

